{
    "links": {
        "self": "http://www.neowsapp.com/rest/v1/neo/3789719?api_key=iIulBulltgU6a56xZRHN4H3l9WmuAYTsLGpBGhQ2"
    },
    "id": "3789719",
    "neo_reference_id": "3789719",
    "name": "(2017 WK16)",
    "designation": "2017 WK16",
    "nasa_jpl_url": "http://ssd.jpl.nasa.gov/sbdb.cgi?sstr=3789719",
    "absolute_magnitude_h": 26.0,
    "estimated_diameter": {
        "kilometers": {
            "estimated_diameter_min": 0.0167708462,
            "estimated_diameter_max": 0.0375007522
        },
        "meters": {
            "estimated_diameter_min": 16.7708462163,
            "estimated_diameter_max": 37.5007521798
        },
        "miles": {
            "estimated_diameter_min": 0.0104209175,
            "estimated_diameter_max": 0.0233018799
        },
        "feet": {
            "estimated_diameter_min": 55.0224631002,
            "estimated_diameter_max": 123.0339677816
        }
    },
    "is_potentially_hazardous_asteroid": false,
    "close_approach_data": [
        {
            "close_approach_date": "2017-11-22",
            "close_approach_date_full": "2017-Nov-22 06:04",
            "epoch_date_close_approach": 1511330640000,
            "relative_velocity": {
                "kilometers_per_second": "30.8261389679",
                "kilometers_per_hour": "110974.1002843586",
                "miles_per_hour": "68954.990257245"
            },
            "miss_distance": {
                "astronomical": "0.0201615656",
                "lunar": "7.8428490184",
                "kilometers": "3016127.269625272",
                "miles": "1874134.5805698736"
            },
            "orbiting_body": "Earth"
        }
    ],
    "orbital_data": {
        "orbit_id": "1",
        "orbit_determination_date": "2017-11-27 13:12:04",
        "first_observation_date": "2017-11-25",
        "last_observation_date": "2017-11-27",
        "data_arc_in_days": 2,
        "observations_used": 23,
        "orbit_uncertainty": "9",
        "minimum_orbit_intersection": ".0147301",
        "jupiter_tisserand_invariant": "4.240",
        "epoch_osculation": "2458083.5",
        "eccentricity": ".7120835983012866",
        "semi_major_axis": "1.413498137156696",
        "inclination": "40.17593534675596",
        "ascending_node_longitude": "240.1813991044003",
        "orbital_period": "613.820357161767",
        "perihelion_distance": ".4069692974579903",
        "perihelion_argument": "63.95225983327067",
        "aphelion_distance": "2.420026976855402",
        "perihelion_time": "2458031.690970964792",
        "mean_anomaly": "30.38551953362392",
        "mean_motion": ".5864908124986236",
        "equinox": "J2000",
        "orbit_class": {
            "orbit_class_type": "APO",
            "orbit_class_description": "Near-Earth asteroid orbits which cross the Earth’s orbit similar to that of 1862 Apollo",
            "orbit_class_range": "a (semi-major axis) > 1.0 AU; q (perihelion) < 1.017 AU"
        }
    },
    "is_sentry_object": false
}